OBJECT_NAME,OBJECT_ID,EPOCH,MEAN_MOTION,ECCENTRICITY,INCLINATION,RA_OF_ASC_NODE,ARG_OF_PERICENTER,MEAN_ANOMALY,EPHEMERIS_TYPE,CLASSIFICATION_TYPE,NORAD_CAT_ID,ELEMENT_SET_NO,REV_AT_EPOCH,BSTAR,MEAN_MOTION_DOT,MEAN_MOTION_DDOT
NIMIQ 2,2002-062A,2026-07-01T13:26:36.720672,1.00272191,.00057019,9.4772,56.7442,39.6464,275.6923,0,U,27632,999,4432,0,-.64E-6,0
USA 167,2003-008A,2026-07-01T13:34:30.272160,1.00272329,.00036875,10.9879,43.2777,320.7507,357.5276,0,U,27691,999,691,0,.8E-7,0
USA 169 (MILSTAR-2 4),2003-012A,2026-07-01T09:37:09.379200,1.00271723,.01003544,12.3698,29.7230,9.9591,176.2157,0,U,27711,999,3309,0,-.242E-5,0
ASIASAT 4,2003-014A,2026-07-01T10:09:54.242208,1.00269639,.00028487,4.7396,75.5692,29.2535,114.6467,0,U,27718,999,4544,0,-.216E-5,0
HELLAS-SAT 2,2003-020A,2026-07-01T10:33:32.012640,1.00272278,.00032228,7.3880,67.7146,54.9876,305.1488,0,U,27811,999,4298,0,-.78E-6,0
THURAYA-2,2003-026A,2026-06-30T17:42:23.326272,1.00275104,.00025827,8.8605,31.9158,17.9211,178.6022,0,U,27825,999,8448,0,.13E-5,0
OPTUS C1,2003-028B,2026-07-01T14:21:01.220256,1.00271684,.00057272,6.9236,69.2365,27.2234,194.2096,0,U,27831,999,5320,0,-.145E-5,0
USA 170,2003-040A,2026-06-28T22:42:46.918368,1.00272204,.00023828,10.5240,47.8365,64.6735,169.3974,0,U,27875,999,3311,0,.128E-5,0
GALAXY 13 (HORIZONS-1),2003-044A,2026-07-01T13:50:14.364096,1.00271822,.0001689,1.4557,83.6807,11.8724,241.6056,0,U,27954,999,4671,0,.142E-5,0
YAMAL 202,2003-053A,2026-07-01T14:17:00.186720,1.00271704,.00032935,6.3792,70.7644,22.6166,204.0538,0,U,28089,999,8284,0,-.74E-6,0
UFO 11 (USA 174),2003-057A,2026-07-01T14:23:10.700160,1.00272099,.00024717,8.9484,33.7555,78.9196,98.3738,0,U,28117,999,8259,0,-.99E-6,0
USA 176 (DSP 22),2004-004A,2026-07-01T10:22:25.578336,1.00272069,.0000902,12.0804,25.9620,319.4440,40.4191,0,U,28158,999,3307,0,-.291E-5,0
ABS-4 (MOBISAT-1),2004-007A,2026-07-01T05:45:51.826752,1.00269908,.0004502,6.0761,71.8368,27.7898,327.0912,0,U,28184,999,5247,0,.46E-6,0
INTELSAT 10-02,2004-022A,2026-07-01T08:53:25.849248,1.00270327,.00001792,0.0379,270.4809,221.8836,279.4180,0,U,28358,999,8069,0,-.1E-7,0
ANIK F2,2004-027A,2026-07-01T13:28:16.529088,1.00271908,.0004126,3.3226,79.2576,19.1211,272.1819,0,U,28378,999,4140,0,-.42E-6,0
AMC-15,2004-041A,2026-07-01T13:25:56.523936,1.00271284,.00024983,0.0165,345.4074,114.7455,275.8935,0,U,28446,999,7944,0,-.78E-6,0
NSS-10,2005-003A,2026-07-01T05:47:05.917344,1.00271033,.00030937,6.4827,70.2851,26.1740,232.1576,0,U,28526,999,5329,0,-.246E-5,0
INMARSAT 4-F1,2005-009A,2026-07-01T14:08:52.392192,1.00271708,.00029743,5.1861,42.7721,59.1626,208.0374,0,U,28628,999,7781,0,.4E-6,0
DIRECTV 8,2005-019A,2026-07-01T14:37:57.672192,1.00270607,.00033479,0.0197,21.3943,88.4861,270.2290,0,U,28659,999,7721,0,0,0
GALAXY 28 (G-28),2005-022A,2026-07-01T10:28:39.979776,1.00280015,.00027163,3.3336,78.7613,22.8279,307.9758,0,U,28702,999,5211,0,-.191E-5,0
THAICOM 4,2005-028A,2026-07-01T09:03:38.808000,1.00271026,.00019415,0.2804,85.7059,0.8076,88.3392,0,U,28786,999,5239,0,-.352E-5,0
ANIK F1R,2005-036A,2026-07-01T13:26:16.718208,1.00272119,.00043634,4.3474,76.4067,12.5265,284.9476,0,U,28868,999,4659,0,-.68E-6,0
SYRACUSE 3A,2005-041B,2026-06-30T21:30:38.729376,1.00273987,.0002764,4.6763,75.6694,20.2174,192.3876,0,U,28885,999,7588,0,.136E-5,0
INMARSAT 4-F2,2005-044A,2026-07-01T14:28:30.698976,1.00270882,.00032698,5.1123,43.6647,46.3818,190.2243,0,U,28899,999,7566,0,-.253E-5,0
METEOSAT-9 (MSG-2),2005-049B,2026-06-30T17:43:00.765984,1.00279300,.00018275,9.3903,54.0333,1.4312,174.9175,0,U,28912,999,713,0,.127E-5,0
EUTELSAT 174A,2005-052A,2026-07-01T14:11:00.183840,1.00268937,.00061752,4.2529,76.3544,24.5686,205.4942,0,U,28924,999,5247,0,.16E-6,0
ECHOSTAR 10,2006-003A,2026-07-01T13:28:03.176832,1.00272358,.00018484,0.0342,307.8467,114.4236,309.1713,0,U,28935,999,7460,0,-.45E-6,0
SPAINSAT,2006-007A,2026-07-01T07:23:28.207104,1.00270297,.00050907,0.5980,86.3240,12.5640,261.1644,0,U,28945,999,7435,0,-.207E-5,0
JCSAT-5A,2006-010A,2026-07-01T14:34:16.444128,1.00269512,.00021766,1.1452,84.0855,10.5846,175.5893,0,U,29045,999,7391,0,-.318E-5,0
ASTRA 1KR,2006-012A,2026-07-01T14:07:10.149888,1.00271105,.00037411,0.5092,83.2330,9.9099,57.2800,0,U,29055,999,4584,0,.129E-5,0
GALAXY 16 (G-16),2006-023A,2026-07-01T13:21:04.472928,1.00271082,.00027476,0.0085,100.0749,355.2526,285.5514,0,U,29236,999,7311,0,-.116E-5,0
EUTELSAT 33F,2006-032A,2026-07-01T14:11:09.765600,1.00272428,.00037276,1.6968,82.0965,16.5332,66.8723,0,U,29270,999,4745,0,.165E-5,0
