NIMIQ 2                 
1 27632U 02062A   26182.56014723 -.00000064  00000+0  00000+0 0  9996
2 27632   9.4772  56.7442 0005701  39.6464 275.6923  1.00272191 44324
USA 167                 
1 27691U 03008A   26182.56562815  .00000008  00000+0  00000+0 0  9999
2 27691  10.9879  43.2777 0003687 320.7507 357.5276  1.00272329  6916
USA 169 (MILSTAR-2 4)   
1 27711U 03012A   26182.40080300 -.00000242  00000+0  00000+0 0  9995
2 27711  12.3698  29.7230 0100354   9.9591 176.2157  1.00271723 33095
ASIASAT 4               
1 27718U 03014A   26182.42354447 -.00000216  00000+0  00000+0 0  9993
2 27718   4.7396  75.5692 0002848  29.2535 114.6467  1.00269639 45440
HELLAS-SAT 2            
1 27811U 03020A   26182.43995385 -.00000078  00000+0  00000+0 0  9993
2 27811   7.3880  67.7146 0003222  54.9876 305.1488  1.00272278 42987
THURAYA-2               
1 27825U 03026A   26181.73776998  .00000130  00000+0  00000+0 0  9991
2 27825   8.8605  31.9158 0002582  17.9211 178.6022  1.00275104 84488
OPTUS C1                
1 27831U 03028B   26182.59793079 -.00000145  00000+0  00000+0 0  9991
2 27831   6.9236  69.2365 0005727  27.2234 194.2096  1.00271684 53201
USA 170                 
1 27875U 03040A   26179.94637637  .00000128  00000+0  00000+0 0  9995
2 27875  10.5240  47.8365 0002382  64.6735 169.3974  1.00272204 33117
GALAXY 13 (HORIZONS-1)  
1 27954U 03044A   26182.57655514  .00000142  00000+0  00000+0 0  9990
2 27954   1.4557  83.6807 0001689  11.8724 241.6056  1.00271822 46715
YAMAL 202               
1 28089U 03053A   26182.59514105 -.00000074  00000+0  00000+0 0  9997
2 28089   6.3792  70.7644 0003293  22.6166 204.0538  1.00271704 82840
UFO 11 (USA 174)        
1 28117U 03057A   26182.59942940 -.00000099  00000+0  00000+0 0  9992
2 28117   8.9484  33.7555 0002471  78.9196  98.3738  1.00272099 82598
USA 176 (DSP 22)        
1 28158U 04004A   26182.43224049 -.00000291  00000+0  00000+0 0  9990
2 28158  12.0804  25.9620 0000902 319.4440  40.4191  1.00272069 33070
ABS-4 (MOBISAT-1)       
1 28184U 04007A   26182.24018318  .00000046  00000+0  00000+0 0  9998
2 28184   6.0761  71.8368 0004502  27.7898 327.0912  1.00269908 52477
INTELSAT 10-02          
1 28358U 04022A   26182.37043807 -.00000001  00000+0  00000+0 0  9995
2 28358   0.0379 270.4809 0000179 221.8836 279.4180  1.00270327 80690
ANIK F2                 
1 28378U 04027A   26182.56130242 -.00000042  00000+0  00000+0 0  9998
2 28378   3.3226  79.2576 0004126  19.1211 272.1819  1.00271908 41407
AMC-15                  
1 28446U 04041A   26182.55968199 -.00000078  00000+0  00000+0 0  9998
2 28446   0.0165 345.4074 0002498 114.7455 275.8935  1.00271284 79443
NSS-10                  
1 28526U 05003A   26182.24104071 -.00000246  00000+0  00000+0 0  9990
2 28526   6.4827  70.2851 0003093  26.1740 232.1576  1.00271033 53292
INMARSAT 4-F1           
1 28628U 05009A   26182.58949528  .00000040  00000+0  00000+0 0  9991
2 28628   5.1861  42.7721 0002974  59.1626 208.0374  1.00271708 77816
DIRECTV 8               
1 28659U 05019A   26182.60969528  .00000000  00000+0  00000+0 0  9997
2 28659   0.0197  21.3943 0003347  88.4861 270.2290  1.00270607 77215
GALAXY 28 (G-28)        
1 28702U 05022A   26182.43657384 -.00000191  00000+0  00000+0 0  9997
2 28702   3.3336  78.7613 0002716  22.8279 307.9758  1.00280015 52112
THAICOM 4               
1 28786U 05028A   26182.37753250 -.00000352  00000+0  00000+0 0  9996
2 28786   0.2804  85.7059 0001941   0.8076  88.3392  1.00271026 52398
ANIK F1R                
1 28868U 05036A   26182.55991572 -.00000068  00000+0  00000+0 0  9991
2 28868   4.3474  76.4067 0004363  12.5265 284.9476  1.00272119 46590
SYRACUSE 3A             
1 28885U 05041B   26181.89628159  .00000136  00000+0  00000+0 0  9995
2 28885   4.6763  75.6694 0002764  20.2174 192.3876  1.00273987 75882
INMARSAT 4-F2           
1 28899U 05044A   26182.60313309 -.00000253  00000+0  00000+0 0  9992
2 28899   5.1123  43.6647 0003269  46.3818 190.2243  1.00270882 75663
METEOSAT-9 (MSG-2)      
1 28912U 05049B   26181.73820331  .00000127  00000+0  00000+0 0  9993
2 28912   9.3903  54.0333 0001827   1.4312 174.9175  1.00279300  7132
EUTELSAT 174A           
1 28924U 05052A   26182.59097435  .00000016  00000+0  00000+0 0  9993
2 28924   4.2529  76.3544 0006175  24.5686 205.4942  1.00268937 52478
ECHOSTAR 10             
1 28935U 06003A   26182.56114788 -.00000045  00000+0  00000+0 0  9993
2 28935   0.0342 307.8467 0001848 114.4236 309.1713  1.00272358 74604
SPAINSAT                
1 28945U 06007A   26182.30796536 -.00000207  00000+0  00000+0 0  9997
2 28945   0.5980  86.3240 0005090  12.5640 261.1644  1.00270297 74358
JCSAT-5A                
1 29045U 06010A   26182.60713477 -.00000318  00000+0  00000+0 0  9992
2 29045   1.1452  84.0855 0002176  10.5846 175.5893  1.00269512 73919
ASTRA 1KR               
1 29055U 06012A   26182.58831192  .00000129  00000+0  00000+0 0  9996
2 29055   0.5092  83.2330 0003741   9.9099  57.2800  1.00271105 45849
GALAXY 16 (G-16)        
1 29236U 06023A   26182.55630177 -.00000116  00000+0  00000+0 0  9993
2 29236   0.0085 100.0749 0002747 355.2526 285.5514  1.00271082 73119
EUTELSAT 33F            
1 29270U 06032A   26182.59108525  .00000165  00000+0  00000+0 0  9995
2 29270   1.6968  82.0965 0003727  16.5332  66.8723  1.00272428 47459
